[{"OBJECT_NAME":"STARLINK-2257","OBJECT_ID":"2021-018A","EPOCH":"2026-03-09T17:25:30.330336","MEAN_MOTION":15.30195877,"ECCENTRICITY":0.0001224,"INCLINATION":53.1595,"RA_OF_ASC_NODE":245.1686,"ARG_OF_PERICENTER":89.9599,"MEAN_ANOMALY":270.1542,"EPHEMERIS_TYPE":0,"CLASSIFICATION_TYPE":"U","NORAD_CAT_ID":47787,"ELEMENT_SET_NO":999,"REV_AT_EPOCH":27669,"BSTAR":-2.2394526e-5,"MEAN_MOTION_DOT":-1.022e-5,"MEAN_MOTION_DDOT":0},{"OBJECT_NAME":"OBJECT F","OBJECT_ID":"2023-072F","EPOCH":"2026-03-09T23:31:37.259904","MEAN_MOTION":15.29470958,"ECCENTRICITY":0.00062878,"INCLINATION":97.5173,"RA_OF_ASC_NODE":265.798,"ARG_OF_PERICENTER":19.0017,"MEAN_ANOMALY":341.1456,"EPHEMERIS_TYPE":0,"CLASSIFICATION_TYPE":"U","NORAD_CAT_ID":56748,"ELEMENT_SET_NO":999,"REV_AT_EPOCH":15460,"BSTAR":0.00043416252,"MEAN_MOTION_DOT":0.00012341,"MEAN_MOTION_DDOT":0}]
